48967,ONEWEB-0249,2021,109.37,148.0,+,87.9,Active,1,LEO,Russia,UK,Commercial,Communications,Soyuz,1 48967U 21060A   25144.47963481  .00000010  00000+0 -64227-5 0  9998,2 48967  87.9022 306.2582 0001875  97.8035 262.3309 13.16593943188469,13.16593943,0.0001875,LEO
48968,ONEWEB-0250,2021,108.61,148.0,+,87.9,Active,1,LEO,Russia,UK,Commercial,Communications,Soyuz,1 48968U 21060B   25144.49359268  .00000075  00000+0  14038-3 0  9996,2 48968  87.9023 305.2840 0002663 112.0245 248.1174 13.25806914188711,13.25806914,0.0002663,LEO
48970,ONEWEB-0252,2021,109.37,148.0,+,87.9,Active,1,LEO,Russia,UK,Commercial,Communications,Soyuz,1 48970U 21060D   25144.43532586  .00000197  00000+0  48050-3 0  9995,2 48970  87.9022 306.2602 0001550  85.9848 274.1460 13.16594576188503,13.16594576,0.000155,LEO
48971,ONEWEB-0253,2021,109.37,148.0,+,87.9,Active,1,LEO,Russia,UK,Commercial,Communications,Soyuz,1 48971U 21060E   25144.42424349  .00000044  00000+0  82494-4 0  9994,2 48971  87.9020 306.2675 0001647 101.8594 258.2722 13.16594694188432,13.16594694,0.0001647,LEO
48972,ONEWEB-0254,2021,109.37,148.0,+,87.9,Active,1,LEO,Russia,UK,Commercial,Communications,Soyuz,1 48972U 21060F   25144.43374088  .00000086  00000+0  19039-3 0  9990,2 48972  87.9022 306.2492 0001852 110.2446 249.8884 13.16594415188436,13.16594415,0.0001852,LEO
48973,ONEWEB-0255,2021,109.37,148.0,+,87.9,Active,1,LEO,Russia,UK,Commercial,Communications,Soyuz,1 48973U 21060G   25144.47174499  .00000019  00000+0  16080-4 0  9999,2 48973  87.9022 306.2751 0001777 105.2745 254.8583 13.16593321188513,13.16593321,0.0001777,LEO
48974,ONEWEB-0256,2021,109.37,148.0,+,87.9,Active,1,LEO,Russia,UK,Commercial,Communications,Soyuz,1 48974U 21060H   25144.42187070  .00000041  00000+0  74439-4 0  9991,2 48974  87.9016 306.2972 0001704  90.8966 269.2360 13.16594994188471,13.16594994,0.0001704,LEO
48975,ONEWEB-0257,2021,109.37,148.0,+,87.9,Active,1,LEO,Russia,UK,Commercial,Communications,Soyuz,1 48975U 21060J   25144.45432477  .00000059  00000+0  12099-3 0  9991,2 48975  87.9023 306.2536 0001602 100.0791 260.0520 13.16594512188432,13.16594512,0.0001602,LEO
